
# Worst residual: 15.56 km
# MJD 59110.000000 (2020 Sep 18  0:00)
1972-073A = IMP-7 = NORAD 06197
1 06197U 72073A   20262.49919926  .00000000  00000-0  00000-0 0  7227
2 06197 037.6256 299.8844 2589278 193.5157 139.2919 00.08256309    07

# Worst residual: 15.41 km
# MJD 59111.000000 (2020 Sep 19  0:00)
1972-073A = IMP-7 = NORAD 06197
1 06197U 72073A   20263.49919926  .00000000  00000-0  00000-0 0  7228
2 06197 037.5510 299.8396 2555308 193.5250 169.1416 00.08224956    09

# Worst residual: 16.01 km
# MJD 59112.000000 (2020 Sep 20  0:00)
1972-073A = IMP-7 = NORAD 06197
1 06197U 72073A   20264.49919926  .00000000  00000-0  00000-0 0  7229
2 06197 037.4867 299.7760 2519636 193.3135 199.0458 00.08185836    02

# Worst residual: 15.45 km
# MJD 59113.000000 (2020 Sep 21  0:00)
1972-073A = IMP-7 = NORAD 06197
1 06197U 72073A   20265.49919926  .00000000  00000-0  00000-0 0  7220
2 06197 037.4468 299.7176 2490037 192.7440 229.1441 00.08141305    05

# Worst residual: 14.75 km
# MJD 59114.000000 (2020 Sep 22  0:00)
1972-073A = IMP-7 = NORAD 06197
1 06197U 72073A   20266.49919926  .00000000  00000-0  00000-0 0  7221
2 06197 037.4237 299.6834 2479600 191.8365 259.4475 00.08093259    05

# Worst residual: 23.67 km
# MJD 59115.000000 (2020 Sep 23  0:00)
1972-073A = IMP-7 = NORAD 06197
1 06197U 72073A   20267.49919926  .00000000  00000-0  00000-0 0  7222
2 06197 037.4010 299.6723 2499716 190.8597 289.7370 00.08039748    00

# Worst residual: 31.26 km
# MJD 59116.000000 (2020 Sep 24  0:00)
1972-073A = IMP-7 = NORAD 06197
1 06197U 72073A   20268.49919926  .00000000  00000-0  00000-0 0  7223
2 06197 037.3726 299.6383 2552568 190.4734 319.4339 00.07982626    06

# Worst residual: 46.54 km
# MJD 59117.000000 (2020 Sep 25  0:00)
1972-073A = IMP-7 = NORAD 06197
1 06197U 72073A   20269.49919926  .00000000  00000-0  00000-0 0  7224
2 06197 037.3719 299.5603 2605561 191.3707 347.8614 00.07940061    02

# Worst residual: 48.10 km
# MJD 59118.000000 (2020 Sep 26  0:00)
1972-073A = IMP-7 = NORAD 06197
1 06197U 72073A   20270.49919926  .00000000  00000-0  00000-0 0  7226
2 06197 037.4067 299.5371 2595145 192.9808 015.5026 00.07957067    06

# Worst residual: 28.74 km
# MJD 59119.000000 (2020 Sep 27  0:00)
1972-073A = IMP-7 = NORAD 06197
1 06197U 72073A   20271.49919926  .00000000  00000-0  00000-0 0  7227
2 06197 037.4035 299.5888 2531743 193.5092 044.2294 00.08033926    06

# Worst residual: 29.18 km
# MJD 59120.000000 (2020 Sep 28  0:00)
1972-073A = IMP-7 = NORAD 06197
1 06197U 72073A   20272.49919926  .00000000  00000-0  00000-0 0  7228
2 06197 037.3623 299.5994 2481940 192.9276 074.3036 00.08111516    06

# Worst residual: 26.02 km
# MJD 59121.000000 (2020 Sep 29  0:00)
1972-073A = IMP-7 = NORAD 06197
1 06197U 72073A   20273.49919926  .00000000  00000-0  00000-0 0  7229
2 06197 037.3305 299.5500 2457129 192.1103 104.8835 00.08163862    06

# Worst residual: 21.95 km
# MJD 59122.000000 (2020 Sep 30  0:00)
1972-073A = IMP-7 = NORAD 06197
1 06197U 72073A   20274.49919926  .00000000  00000-0  00000-0 0  7220
2 06197 037.3199 299.4846 2444088 191.4237 135.4743 00.08188812    09

# Worst residual: 17.97 km
# MJD 59123.000000 (2020 Oct  1  0:00)
1972-073A = IMP-7 = NORAD 06197
1 06197U 72073A   20275.49919926  .00000000  00000-0  00000-0 0  7221
2 06197 037.3192 299.4311 2434014 190.8493 165.9545 00.08191982    04

# Worst residual: 15.78 km
# MJD 59124.000000 (2020 Oct  2  0:00)
1972-073A = IMP-7 = NORAD 06197
1 06197U 72073A   20276.49919926  .00000000  00000-0  00000-0 0  7222
2 06197 037.3068 299.3893 2423491 190.2990 196.3152 00.08177952    06

# Worst residual: 15.19 km
# MJD 59125.000000 (2020 Oct  3  0:00)
1972-073A = IMP-7 = NORAD 06197
1 06197U 72073A   20277.49919926  .00000000  00000-0  00000-0 0  7223
2 06197 037.2785 299.3423 2412956 189.6582 226.6227 00.08149341    04

# Worst residual: 17.13 km
# MJD 59126.000000 (2020 Oct  4  0:00)
1972-073A = IMP-7 = NORAD 06197
1 06197U 72073A   20278.49919926  .00000000  00000-0  00000-0 0  7224
2 06197 037.2327 299.2584 2404941 188.7908 256.9809 00.08103145    04

# Worst residual: 19.49 km
# MJD 59127.000000 (2020 Oct  5  0:00)
1972-073A = IMP-7 = NORAD 06197
1 06197U 72073A   20279.49919926  .00000000  00000-0  00000-0 0  7225
2 06197 037.1870 299.0973 2406078 187.6151 287.3887 00.08034743    08

# Worst residual: 9.54 km
# MJD 59128.000000 (2020 Oct  6  0:00)
1972-073A = IMP-7 = NORAD 06197
1 06197U 72073A   20280.49919926  .00000000  00000-0  00000-0 0  7227
2 06197 037.1799 298.8856 2414680 186.8287 317.0316 00.07983209    01

# Worst residual: 23.05 km
# MJD 59129.000000 (2020 Oct  7  0:00)
1972-073A = IMP-7 = NORAD 06197
1 06197U 72073A   20281.49919926  .00000000  00000-0  00000-0 0  7228
2 06197 037.1829 298.7756 2391411 187.6984 345.1159 00.08035165    09

# Worst residual: 28.68 km
# MJD 59130.000000 (2020 Oct  8  0:00)
1972-073A = IMP-7 = NORAD 06197
1 06197U 72073A   20282.49919926  .00000000  00000-0  00000-0 0  7229
2 06197 037.1765 298.7356 2358844 188.9501 013.3284 00.08088860    09

# Worst residual: 20.53 km
# MJD 59131.000000 (2020 Oct  9  0:00)
1972-073A = IMP-7 = NORAD 06197
1 06197U 72073A   20283.49919926  .00000000  00000-0  00000-0 0  7220
2 06197 037.1696 298.7462 2335913 189.7105 042.0390 00.08101915    05

# Worst residual: 6.93 km
# MJD 59132.000000 (2020 Oct 10  0:00)
1972-073A = IMP-7 = NORAD 06197
1 06197U 72073A   20284.49919926  .00000000  00000-0  00000-0 0  7221
2 06197 037.1381 298.7742 2321463 189.8747 071.1710 00.08108669    07

# Worst residual: 3.57 km
# MJD 59133.000000 (2020 Oct 11  0:00)
1972-073A = IMP-7 = NORAD 06197
1 06197U 72073A   20285.49919926  .00000000  00000-0  00000-0 0  7222
2 06197 037.0931 298.7680 2318273 189.7926 100.4877 00.08115785    08

# Worst residual: 1.01 km
# MJD 59134.000000 (2020 Oct 12  0:00)
1972-073A = IMP-7 = NORAD 06197
1 06197U 72073A   20286.49919926  .00000000  00000-0  00000-0 0  7223
2 06197 037.0545 298.7316 2320054 189.8075 129.6878 00.08117194    01

# Worst residual: 4.56 km
# MJD 59135.000000 (2020 Oct 13  0:00)
1972-073A = IMP-7 = NORAD 06197
1 06197U 72073A   20287.49919926  .00000000  00000-0  00000-0 0  7224
2 06197 037.0204 298.6873 2317788 190.0105 158.6323 00.08109771    07

# Worst residual: 9.84 km
# MJD 59136.000000 (2020 Oct 14  0:00)
1972-073A = IMP-7 = NORAD 06197
1 06197U 72073A   20288.49919926  .00000000  00000-0  00000-0 0  7225
2 06197 036.9817 298.6411 2306458 190.3416 187.3187 00.08095271    09

# Worst residual: 15.07 km
# MJD 59137.000000 (2020 Oct 15  0:00)
1972-073A = IMP-7 = NORAD 06197
1 06197U 72073A   20289.49919926  .00000000  00000-0  00000-0 0  7226
2 06197 036.9309 298.5821 2285433 190.6978 215.8284 00.08078147    02

# Worst residual: 16.39 km
# MJD 59138.000000 (2020 Oct 16  0:00)
1972-073A = IMP-7 = NORAD 06197
1 06197U 72073A   20290.49919926  .00000000  00000-0  00000-0 0  7228
2 06197 036.8862 298.5175 2257003 190.9616 244.2901 00.08063214    02
